<?xml version="1.0" encoding="UTF-8"?>
<gpx version="1.1"
     creator="Absensi App"
     xmlns="http://www.topografix.com/GPX/1/1"
     xmlns:xsi="http://www.w3.org/2001/XMLSchema-instance"
     xsi:schemaLocation="http://www.topografix.com/GPX/1/1 http://www.topografix.com/GPX/1/1/gpx.xsd">
  <metadata>
    <name>Lokasi Kantor</name>
    <desc>Koordinat lokasi kantor untuk simulasi GPS Android Emulator</desc>
    <time>2026-07-30T02:24:00Z</time>
  </metadata>
  <wpt lat="-1.746067" lon="102.972139">
    <name>Lokasi Kantor</name>
    <desc>Kantor - Lat: -1.746067, Lon: 102.972139</desc>
  </wpt>
</gpx>
